{
  "type": "FeatureCollection",
  "features": [
    {
      "type": "Feature",
      "properties": {
        "norad_id": 34022,
        "name": "COSMOS 2251 DEB",
        "group": "cosmos-2251-debris",
        "lat": -70.81530040059326,
        "lon": 157.0265805701652,
        "alt_km": 768.4778062627829,
        "timestamp": "2025-12-06T18:50:10.563226+00:00",
        "meta_object_name": "COSMOS 2251 DEB",
        "meta_object_id": "1993-036HH",
        "meta_epoch": "2025-12-06T06:16:48.256896",
        "meta_mean_motion": 14.38947764,
        "meta_eccentricity": 0.00224754,
        "meta_inclination": 74.0539,
        "meta_ra_of_asc_node": 282.7312,
        "meta_arg_of_pericenter": 348.8651,
        "meta_mean_anomaly": 81.5115,
        "meta_ephemeris_type": 0,
        "meta_classification_type": "U",
        "meta_norad_cat_id": 34022,
        "meta_element_set_no": 999,
        "meta_rev_at_epoch": 88102,
        "meta_bstar": 0.00050410646,
        "meta_mean_motion_dot": 1.533e-05,
        "meta_mean_motion_ddot": 0,
        "tle_line1": "1 34022U 93036HH  25340.26166964  .00001533  00000+0  50411-3 0  9991",
        "tle_line2": "2 34022  74.0539 282.7312 0022475 348.8651  81.5115 14.38947764881024"
      },
      "geometry": {
        "type": "Point",
        "coordinates": [
          157.0265805701652,
          -70.81530040059326
        ]
      }
    },
    {
      "type": "Feature",
      "properties": {
        "norad_id": 34023,
        "name": "COSMOS 2251 DEB",
        "group": "cosmos-2251-debris",
        "lat": 33.58919085638404,
        "lon": 71.79602232889303,
        "alt_km": 764.9385087685441,
        "timestamp": "2025-12-06T18:50:10.563236+00:00",
        "meta_object_name": "COSMOS 2251 DEB",
        "meta_object_id": "1993-036HJ",
        "meta_epoch": "2025-12-06T05:31:43.067712",
        "meta_mean_motion": 14.40537648,
        "meta_eccentricity": 0.00181919,
        "meta_inclination": 74.0249,
        "meta_ra_of_asc_node": 263.7889,
        "meta_arg_of_pericenter": 0.4491,
        "meta_mean_anomaly": 149.8451,
        "meta_ephemeris_type": 0,
        "meta_classification_type": "U",
        "meta_norad_cat_id": 34023,
        "meta_element_set_no": 999,
        "meta_rev_at_epoch": 88120,
        "meta_bstar": 0.00064381072,
        "meta_mean_motion_dot": 2.028e-05,
        "meta_mean_motion_ddot": 0,
        "tle_line1": "1 34023U 93036HJ  25340.23035958  .00002028  00000+0  64381-3 0  9998",
        "tle_line2": "2 34023  74.0249 263.7889 0018191   0.4491 149.8451 14.40537648881204"
      },
      "geometry": {
        "type": "Point",
        "coordinates": [
          71.79602232889303,
          33.58919085638404
        ]
      }
    },
    {
      "type": "Feature",
      "properties": {
        "norad_id": 34024,
        "name": "COSMOS 2251 DEB",
        "group": "cosmos-2251-debris",
        "lat": -73.12861853154159,
        "lon": -142.49141881617302,
        "alt_km": 786.9244703925297,
        "timestamp": "2025-12-06T18:50:10.563246+00:00",
        "meta_object_name": "COSMOS 2251 DEB",
        "meta_object_id": "1993-036HK",
        "meta_epoch": "2025-12-06T04:41:46.425408",
        "meta_mean_motion": 14.35384375,
        "meta_eccentricity": 0.00207375,
        "meta_inclination": 74.0462,
        "meta_ra_of_asc_node": 327.9884,
        "meta_arg_of_pericenter": 20.4143,
        "meta_mean_anomaly": 81.0222,
        "meta_ephemeris_type": 0,
        "meta_classification_type": "U",
        "meta_norad_cat_id": 34024,
        "meta_element_set_no": 999,
        "meta_rev_at_epoch": 87930,
        "meta_bstar": 0.00033810769,
        "meta_mean_motion_dot": 9.47e-06,
        "meta_mean_motion_ddot": 0,
        "tle_line1": "1 34024U 93036HK  25340.19567622  .00000947  00000+0  33811-3 0  9994",
        "tle_line2": "2 34024  74.0462 327.9884 0020737  20.4143  81.0222 14.35384375879307"
      },
      "geometry": {
        "type": "Point",
        "coordinates": [
          -142.49141881617302,
          -73.12861853154159
        ]
      }
    },
    {
      "type": "Feature",
      "properties": {
        "norad_id": 34026,
        "name": "COSMOS 2251 DEB",
        "group": "cosmos-2251-debris",
        "lat": -30.455740260728476,
        "lon": 177.0524561394675,
        "alt_km": 763.8896115696534,
        "timestamp": "2025-12-06T18:50:10.563255+00:00",
        "meta_object_name": "COSMOS 2251 DEB",
        "meta_object_id": "1993-036HM",
        "meta_epoch": "2025-12-06T07:23:48.360768",
        "meta_mean_motion": 13.6529148,
        "meta_eccentricity": 0.03510674,
        "meta_inclination": 73.7671,
        "meta_ra_of_asc_node": 347.9812,
        "meta_arg_of_pericenter": 218.9368,
        "meta_mean_anomaly": 171.3853,
        "meta_ephemeris_type": 0,
        "meta_classification_type": "U",
        "meta_norad_cat_id": 34026,
        "meta_element_set_no": 999,
        "meta_rev_at_epoch": 83444,
        "meta_bstar": 0.0016271018,
        "meta_mean_motion_dot": 1.991e-05,
        "meta_mean_motion_ddot": 0,
        "tle_line1": "1 34026U 93036HM  25340.30819862  .00001991  00000+0  16271-2 0  9995",
        "tle_line2": "2 34026  73.7671 347.9812 0351067 218.9368 171.3853 13.65291480834441"
      },
      "geometry": {
        "type": "Point",
        "coordinates": [
          177.0524561394675,
          -30.455740260728476
        ]
      }
    },
    {
      "type": "Feature",
      "properties": {
        "norad_id": 34028,
        "name": "COSMOS 2251 DEB",
        "group": "cosmos-2251-debris",
        "lat": 69.88619010293691,
        "lon": 124.24701217160761,
        "alt_km": 824.215725445838,
        "timestamp": "2025-12-06T18:50:10.563268+00:00",
        "meta_object_name": "COSMOS 2251 DEB",
        "meta_object_id": "1993-036HP",
        "meta_epoch": "2025-12-05T12:09:13.597632",
        "meta_mean_motion": 13.20617027,
        "meta_eccentricity": 0.05439777,
        "meta_inclination": 73.8836,
        "meta_ra_of_asc_node": 358.3404,
        "meta_arg_of_pericenter": 137.425,
        "meta_mean_anomaly": 12.2294,
        "meta_ephemeris_type": 0,
        "meta_classification_type": "U",
        "meta_norad_cat_id": 34028,
        "meta_element_set_no": 999,
        "meta_rev_at_epoch": 80912,
        "meta_bstar": 0.00021143739,
        "meta_mean_motion_dot": 1.7e-06,
        "meta_mean_motion_ddot": 0,
        "tle_line1": "1 34028U 93036HP  25339.50640738  .00000170  00000+0  21144-3 0  9995",
        "tle_line2": "2 34028  73.8836 358.3404 0543977 137.4250  12.2294 13.20617027809127"
      },
      "geometry": {
        "type": "Point",
        "coordinates": [
          124.24701217160761,
          69.88619010293691
        ]
      }
    },
    {
      "type": "Feature",
      "properties": {
        "norad_id": 34031,
        "name": "COSMOS 2251 DEB",
        "group": "cosmos-2251-debris",
        "lat": -62.638791812810624,
        "lon": 113.43585911521625,
        "alt_km": 686.6490792040104,
        "timestamp": "2025-12-06T18:50:10.563278+00:00",
        "meta_object_name": "COSMOS 2251 DEB",
        "meta_object_id": "1993-036HS",
        "meta_epoch": "2025-12-06T06:14:26.412288",
        "meta_mean_motion": 14.59566975,
        "meta_eccentricity": 0.00229521,
        "meta_inclination": 74.0119,
        "meta_ra_of_asc_node": 148.0821,
        "meta_arg_of_pericenter": 268.6674,
        "meta_mean_anomaly": 147.2689,
        "meta_ephemeris_type": 0,
        "meta_classification_type": "U",
        "meta_norad_cat_id": 34031,
        "meta_element_set_no": 999,
        "meta_rev_at_epoch": 88471,
        "meta_bstar": 0.0022586149,
        "meta_mean_motion_dot": 0.00010764,
        "meta_mean_motion_ddot": 0,
        "tle_line1": "1 34031U 93036HS  25340.26002792  .00010764  00000+0  22586-2 0  9996",
        "tle_line2": "2 34031  74.0119 148.0821 0022952 268.6674 147.2689 14.59566975884710"
      },
      "geometry": {
        "type": "Point",
        "coordinates": [
          113.43585911521625,
          -62.638791812810624
        ]
      }
    },
    {
      "type": "Feature",
      "properties": {
        "norad_id": 34035,
        "name": "COSMOS 2251 DEB",
        "group": "cosmos-2251-debris",
        "lat": -71.74312498053968,
        "lon": -119.66011523467047,
        "alt_km": 733.1580146091774,
        "timestamp": "2025-12-06T18:50:10.563289+00:00",
        "meta_object_name": "COSMOS 2251 DEB",
        "meta_object_id": "1993-036HW",
        "meta_epoch": "2025-12-06T06:39:33.255072",
        "meta_mean_motion": 14.51819955,
        "meta_eccentricity": 0.00443046,
        "meta_inclination": 74.0656,
        "meta_ra_of_asc_node": 1.2911,
        "meta_arg_of_pericenter": 4.2983,
        "meta_mean_anomaly": 126.4132,
        "meta_ephemeris_type": 0,
        "meta_classification_type": "U",
        "meta_norad_cat_id": 34035,
        "meta_element_set_no": 999,
        "meta_rev_at_epoch": 87872,
        "meta_bstar": 0.0026317984,
        "meta_mean_motion_dot": 0.00010716,
        "meta_mean_motion_ddot": 0,
        "tle_line1": "1 34035U 93036HW  25340.27746823  .00010716  00000+0  26318-2 0  9995",
        "tle_line2": "2 34035  74.0656   1.2911 0044304   4.2983 126.4132 14.51819955878729"
      },
      "geometry": {
        "type": "Point",
        "coordinates": [
          -119.66011523467047,
          -71.74312498053968
        ]
      }
    }
  ]
}